GLOBALSTAR M023         
1 25621U 99004A   26027.49352201 -.00000043  00000+0  33703-3 0  9997
2 25621  52.0107  90.4169 0009336 261.0661 203.9329 12.62515747244069
GLOBALSTAR M040         
1 25622U 99004B   26027.47672539 -.00000032  00000+0  40025-3 0  9998
2 25622  51.9917  94.9519 0001491 147.9024 318.7879 12.62028054243574
GLOBALSTAR M036         
1 25623U 99004C   26027.28892292 -.00000035  00000+0  69243-3 0  9994
2 25623  51.9996   9.6248 0010753 119.4161 349.7566 11.86617766205586
GLOBALSTAR M038         
1 25624U 99004D   26027.49097711 -.00000059  00000+0  29435-3 0  9996
2 25624  51.9966 145.5945 0002567 144.7153 294.2180 12.32540016230033
GLOBALSTAR M022         
1 25649U 99012A   26027.32593506 -.00000051  00000+0  43292-3 0  9996
2 25649  52.0051  41.5836 0002515 249.6730 123.4470 12.02509119203345
GLOBALSTAR M041         
1 25650U 99012B   26027.40355506 -.00000074  00000+0  14196-3 0  9999
2 25650  52.0026 289.6641 0002078  54.5777 305.5253 11.96683252205129
GLOBALSTAR M046         
1 25651U 99012C   26027.07392373 -.00000146  00000+0 -62704-3 0  9995
2 25651  52.0081 344.2321 0002100 350.3755  92.0307 12.09417893210757
GLOBALSTAR M037         
1 25652U 99012D   26027.01989340 -.00000052  00000+0  28661-3 0  9995
2 25652  51.9977 222.3942 0001658 357.3181 166.8097 12.62460398239543
